[{"OBJECT_NAME":"ONEWEB-0714","OBJECT_ID":"2022-166AR","EPOCH":"2025-09-03T03:12:35.099712","MEAN_MOTION":13.21828842,"ECCENTRICITY":0.00021099,"INCLINATION":87.923,"RA_OF_ASC_NODE":301.2677,"ARG_OF_PERICENTER":90.9135,"MEAN_ANOMALY":269.2241,"EPHEMERIS_TYPE":0,"CLASSIFICATION_TYPE":"U","NORAD_CAT_ID":54681,"ELEMENT_SET_NO":999,"REV_AT_EPOCH":13361,"BSTAR":7.0092509e-5,"MEAN_MOTION_DOT":4.2e-7,"MEAN_MOTION_DDOT":0},{"OBJECT_NAME":"ONEWEB-0532","OBJECT_ID":"2023-004A","EPOCH":"2025-09-03T05:20:19.264416","MEAN_MOTION":13.17647887,"ECCENTRICITY":0.00020694,"INCLINATION":87.9037,"RA_OF_ASC_NODE":62.9458,"ARG_OF_PERICENTER":100.647,"MEAN_ANOMALY":259.4895,"EPHEMERIS_TYPE":0,"CLASSIFICATION_TYPE":"U","NORAD_CAT_ID":55140,"ELEMENT_SET_NO":999,"REV_AT_EPOCH":12979,"BSTAR":0.0013770676,"MEAN_MOTION_DOT":5.48e-6,"MEAN_MOTION_DDOT":0},{"OBJECT_NAME":"ONEWEB-0533","OBJECT_ID":"2023-004B","EPOCH":"2025-09-03T04:41:57.888960","MEAN_MOTION":13.12443335,"ECCENTRICITY":0.0001862,"INCLINATION":87.8883,"RA_OF_ASC_NODE":47.6882,"ARG_OF_PERICENTER":87.9614,"MEAN_ANOMALY":272.1727,"EPHEMERIS_TYPE":0,"CLASSIFICATION_TYPE":"U","NORAD_CAT_ID":55141,"ELEMENT_SET_NO":999,"REV_AT_EPOCH":13041,"BSTAR":0.00044827559,"MEAN_MOTION_DOT":1.74e-6,"MEAN_MOTION_DDOT":0},{"OBJECT_NAME":"ONEWEB-0541","OBJECT_ID":"2023-004C","EPOCH":"2025-09-03T05:31:25.163040","MEAN_MOTION":13.11414357,"ECCENTRICITY":0.00016455,"INCLINATION":87.8776,"RA_OF_ASC_NODE":78.2234,"ARG_OF_PERICENTER":91.2298,"MEAN_ANOMALY":268.9019,"EPHEMERIS_TYPE":0,"CLASSIFICATION_TYPE":"U","NORAD_CAT_ID":55142,"ELEMENT_SET_NO":999,"REV_AT_EPOCH":12833,"BSTAR":0.0014165523,"MEAN_MOTION_DOT":5.15e-6,"MEAN_MOTION_DDOT":0},{"OBJECT_NAME":"ONEWEB-0543","OBJECT_ID":"2023-004D","EPOCH":"2025-09-03T02:57:08.271360","MEAN_MOTION":13.18686609,"ECCENTRICITY":0.00016783,"INCLINATION":87.9153,"RA_OF_ASC_NODE":32.5173,"ARG_OF_PERICENTER":86.5735,"MEAN_ANOMALY":273.5589,"EPHEMERIS_TYPE":0,"CLASSIFICATION_TYPE":"U","NORAD_CAT_ID":55143,"ELEMENT_SET_NO":999,"REV_AT_EPOCH":13186,"BSTAR":9.8652038e-5,"MEAN_MOTION_DOT":5.2e-7,"MEAN_MOTION_DDOT":0},{"OBJECT_NAME":"ONEWEB-0544","OBJECT_ID":"2023-004E","EPOCH":"2025-09-03T02:47:37.637376","MEAN_MOTION":13.18687478,"ECCENTRICITY":0.00015171,"INCLINATION":87.9156,"RA_OF_ASC_NODE":32.5086,"ARG_OF_PERICENTER":93.4655,"MEAN_ANOMALY":266.665,"EPHEMERIS_TYPE":0,"CLASSIFICATION_TYPE":"U","NORAD_CAT_ID":55144,"ELEMENT_SET_NO":999,"REV_AT_EPOCH":13186,"BSTAR":1.020435e-6,"MEAN_MOTION_DOT":1.3e-7,"MEAN_MOTION_DDOT":0},{"OBJECT_NAME":"ONEWEB-0560","OBJECT_ID":"2023-004F","EPOCH":"2025-09-03T02:38:08.179296","MEAN_MOTION":13.18687159,"ECCENTRICITY":0.00014426,"INCLINATION":87.9163,"RA_OF_ASC_NODE":32.4877,"ARG_OF_PERICENTER":94.5344,"MEAN_ANOMALY":265.5952,"EPHEMERIS_TYPE":0,"CLASSIFICATION_TYPE":"U","NORAD_CAT_ID":55145,"ELEMENT_SET_NO":999,"REV_AT_EPOCH":13187,"BSTAR":5.4953383e-5,"MEAN_MOTION_DOT":3.5e-7,"MEAN_MOTION_DDOT":0},{"OBJECT_NAME":"ONEWEB-0565","OBJECT_ID":"2023-004G","EPOCH":"2025-09-03T02:28:37.517664","MEAN_MOTION":13.18685058,"ECCENTRICITY":0.0001576,"INCLINATION":87.9155,"RA_OF_ASC_NODE":32.5439,"ARG_OF_PERICENTER":113.8765,"MEAN_ANOMALY":246.2533,"EPHEMERIS_TYPE":0,"CLASSIFICATION_TYPE":"U","NORAD_CAT_ID":55146,"ELEMENT_SET_NO":999,"REV_AT_EPOCH":13186,"BSTAR":-8.195936e-6,"MEAN_MOTION_DOT":1.0e-7,"MEAN_MOTION_DDOT":0},{"OBJECT_NAME":"ONEWEB-0567","OBJECT_ID":"2023-004H","EPOCH":"2025-09-03T04:08:23.373600","MEAN_MOTION":13.18684728,"ECCENTRICITY":0.00014303,"INCLINATION":87.9161,"RA_OF_ASC_NODE":32.4897,"ARG_OF_PERICENTER":105.3736,"MEAN_ANOMALY":254.7554,"EPHEMERIS_TYPE":0,"CLASSIFICATION_TYPE":"U","NORAD_CAT_ID":55147,"ELEMENT_SET_NO":999,"REV_AT_EPOCH":13187,"BSTAR":-0.00013550983,"MEAN_MOTION_DOT":-4.1e-7,"MEAN_MOTION_DDOT":0},{"OBJECT_NAME":"ONEWEB-0569","OBJECT_ID":"2023-004J","EPOCH":"2025-09-02T19:38:47.038272","MEAN_MOTION":13.13470333,"ECCENTRICITY":7.699e-5,"INCLINATION":87.9022,"RA_OF_ASC_NODE":17.2883,"ARG_OF_PERICENTER":111.8292,"MEAN_ANOMALY":248.2919,"EPHEMERIS_TYPE":0,"CLASSIFICATION_TYPE":"U","NORAD_CAT_ID":55148,"ELEMENT_SET_NO":999,"REV_AT_EPOCH":13245,"BSTAR":0.00092670448,"MEAN_MOTION_DOT":3.51e-6,"MEAN_MOTION_DDOT":0},{"OBJECT_NAME":"ONEWEB-0570","OBJECT_ID":"2023-004K","EPOCH":"2025-09-03T03:54:08.856000","MEAN_MOTION":13.1868643,"ECCENTRICITY":0.0002074,"INCLINATION":87.9157,"RA_OF_ASC_NODE":32.4927,"ARG_OF_PERICENTER":110.8459,"MEAN_ANOMALY":249.2896,"EPHEMERIS_TYPE":0,"CLASSIFICATION_TYPE":"U","NORAD_CAT_ID":55149,"ELEMENT_SET_NO":999,"REV_AT_EPOCH":13186,"BSTAR":-0.00013259558,"MEAN_MOTION_DOT":-3.9e-7,"MEAN_MOTION_DDOT":0},{"OBJECT_NAME":"ONEWEB-0571","OBJECT_ID":"2023-004L","EPOCH":"2025-09-03T03:44:38.908032","MEAN_MOTION":13.18685917,"ECCENTRICITY":0.00012149,"INCLINATION":87.9155,"RA_OF_ASC_NODE":32.4993,"ARG_OF_PERICENTER":143.5142,"MEAN_ANOMALY":216.6073,"EPHEMERIS_TYPE":0,"CLASSIFICATION_TYPE":"U","NORAD_CAT_ID":55150,"ELEMENT_SET_NO":999,"REV_AT_EPOCH":13187,"BSTAR":0.00012681424,"MEAN_MOTION_DOT":6.3e-7,"MEAN_MOTION_DDOT":0},{"OBJECT_NAME":"ONEWEB-0572","OBJECT_ID":"2023-004M","EPOCH":"2025-09-03T06:04:02.267328","MEAN_MOTION":13.17651435,"ECCENTRICITY":0.00017353,"INCLINATION":87.9039,"RA_OF_ASC_NODE":62.9487,"ARG_OF_PERICENTER":97.4196,"MEAN_ANOMALY":262.7132,"EPHEMERIS_TYPE":0,"CLASSIFICATION_TYPE":"U","NORAD_CAT_ID":55151,"ELEMENT_SET_NO":999,"REV_AT_EPOCH":12969,"BSTAR":0.00028646414,"MEAN_MOTION_DOT":1.24e-6,"MEAN_MOTION_DDOT":0},{"OBJECT_NAME":"ONEWEB-0573","OBJECT_ID":"2023-004N","EPOCH":"2025-09-03T03:35:07.359072","MEAN_MOTION":13.18685979,"ECCENTRICITY":0.0001713,"INCLINATION":87.9154,"RA_OF_ASC_NODE":32.5073,"ARG_OF_PERICENTER":126.5524,"MEAN_ANOMALY":233.5766,"EPHEMERIS_TYPE":0,"CLASSIFICATION_TYPE":"U","NORAD_CAT_ID":55152,"ELEMENT_SET_NO":999,"REV_AT_EPOCH":13186,"BSTAR":2.026438e-6,"MEAN_MOTION_DOT":1.4e-7,"MEAN_MOTION_DDOT":0},{"OBJECT_NAME":"ONEWEB-0588","OBJECT_ID":"2023-004P","EPOCH":"2025-09-03T03:25:37.141536","MEAN_MOTION":13.1868551,"ECCENTRICITY":0.00019016,"INCLINATION":87.9159,"RA_OF_ASC_NODE":32.4945,"ARG_OF_PERICENTER":110.3537,"MEAN_ANOMALY":249.78,"EPHEMERIS_TYPE":0,"CLASSIFICATION_TYPE":"U","NORAD_CAT_ID":55153,"ELEMENT_SET_NO":999,"REV_AT_EPOCH":13186,"BSTAR":-0.00034322866,"MEAN_MOTION_DOT":-1.22e-6,"MEAN_MOTION_DDOT":0},{"OBJECT_NAME":"ONEWEB-0598","OBJECT_ID":"2023-004Q","EPOCH":"2025-09-03T01:19:56.369856","MEAN_MOTION":13.11419195,"ECCENTRICITY":0.00010976,"INCLINATION":87.8771,"RA_OF_ASC_NODE":78.2926,"ARG_OF_PERICENTER":95.7416,"MEAN_ANOMALY":264.3837,"EPHEMERIS_TYPE":0,"CLASSIFICATION_TYPE":"U","NORAD_CAT_ID":55154,"ELEMENT_SET_NO":999,"REV_AT_EPOCH":12826,"BSTAR":0.0015618942,"MEAN_MOTION_DOT":5.66e-6,"MEAN_MOTION_DDOT":0},{"OBJECT_NAME":"ONEWEB-0599","OBJECT_ID":"2023-004R","EPOCH":"2025-09-02T23:40:05.548512","MEAN_MOTION":13.17647724,"ECCENTRICITY":0.00015696,"INCLINATION":87.9035,"RA_OF_ASC_NODE":63.0058,"ARG_OF_PERICENTER":87.1508,"MEAN_ANOMALY":272.9803,"EPHEMERIS_TYPE":0,"CLASSIFICATION_TYPE":"U","NORAD_CAT_ID":55155,"ELEMENT_SET_NO":999,"REV_AT_EPOCH":12966,"BSTAR":9.2286525e-5,"MEAN_MOTION_DOT":4.9e-7,"MEAN_MOTION_DDOT":0}]
