ONEWEB-0714             
1 54681U 22166AR  25246.13373958  .00000042  00000+0  70093-4 0  9997
2 54681  87.9230 301.2677 0002109  90.9135 269.2241 13.21828842133619
ONEWEB-0532             
1 55140U 23004A   25246.22244519  .00000548  00000+0  13771-2 0  9999
2 55140  87.9037  62.9458 0002069 100.6470 259.4895 13.17647887129792
ONEWEB-0533             
1 55141U 23004B   25246.19580890  .00000174  00000+0  44828-3 0  9994
2 55141  87.8883  47.6882 0001862  87.9614 272.1727 13.12443335130413
ONEWEB-0541             
1 55142U 23004C   25246.23015235  .00000515  00000+0  14166-2 0  9996
2 55142  87.8776  78.2234 0001645  91.2298 268.9019 13.11414357128337
ONEWEB-0543             
1 55143U 23004D   25246.12301240  .00000052  00000+0  98652-4 0  9999
2 55143  87.9153  32.5173 0001678  86.5735 273.5589 13.18686609131866
ONEWEB-0544             
1 55144U 23004E   25246.11640784  .00000013  00000+0  10204-5 0  9993
2 55144  87.9156  32.5086 0001517  93.4655 266.6650 13.18687478131860
ONEWEB-0560             
1 55145U 23004F   25246.10981689  .00000035  00000+0  54953-4 0  9997
2 55145  87.9163  32.4877 0001442  94.5344 265.5952 13.18687159131870
ONEWEB-0565             
1 55146U 23004G   25246.10321201  .00000010  00000+0 -81959-5 0  9997
2 55146  87.9155  32.5439 0001576 113.8765 246.2533 13.18685058131863
ONEWEB-0567             
1 55147U 23004H   25246.17249275 -.00000041  00000+0 -13551-3 0  9991
2 55147  87.9161  32.4897 0001430 105.3736 254.7554 13.18684728131872
ONEWEB-0569             
1 55148U 23004J   25245.81859998  .00000351  00000+0  92670-3 0  9992
2 55148  87.9022  17.2883 0000769 111.8292 248.2919 13.13470333132456
ONEWEB-0570             
1 55149U 23004K   25246.16260250 -.00000039  00000+0 -13260-3 0  9992
2 55149  87.9157  32.4927 0002074 110.8459 249.2896 13.18686430131860
ONEWEB-0571             
1 55150U 23004L   25246.15600588  .00000063  00000+0  12681-3 0  9996
2 55150  87.9155  32.4993 0001214 143.5142 216.6073 13.18685917131875
ONEWEB-0572             
1 55151U 23004M   25246.25280402  .00000124  00000+0  28646-3 0  9993
2 55151  87.9039  62.9487 0001735  97.4196 262.7132 13.17651435129699
ONEWEB-0573             
1 55152U 23004N   25246.14939073  .00000014  00000+0  20264-5 0  9995
2 55152  87.9154  32.5073 0001713 126.5524 233.5766 13.18685979131869
ONEWEB-0588             
1 55153U 23004P   25246.14279099 -.00000122  00000+0 -34323-3 0  9992
2 55153  87.9159  32.4945 0001901 110.3537 249.7800 13.18685510131865
ONEWEB-0598             
1 55154U 23004Q   25246.05551354  .00000566  00000+0  15619-2 0  9996
2 55154  87.8771  78.2926 0001097  95.7416 264.3837 13.11419195128260
ONEWEB-0599             
1 55155U 23004R   25245.98617533  .00000049  00000+0  92287-4 0  9994
2 55155  87.9035  63.0058 0001569  87.1508 272.9803 13.17647724129664
